[{"area":180,"callingCode":"297","code":"AW","name":"Aruba","region":"Americas","translatedName":[{"key":"FR","value":"Aruba"},{"key":"GE","value":"Aruba"},{"key":"IT","value":"Aruba"},{"key":"JP","value":"アルバ"},{"key":"RU","value":"Аруба"},{"key":"ES","value":"Aruba"}]},{"area":652230,"callingCode":"93","code":"AF","name":"Afghanistan","region":"Asia","translatedName":[{"key":"FR","value":"Afghanistan"},{"key":"GE","value":"Afghanistan"},{"key":"IT","value":"Afghanistan"},{"key":"JP","value":"アフガニスタン"},{"key":"RU","value":"Афганистан"},{"key":"ES","value":"Afganistán"}]},{"area":1246700,"callingCode":"244","code":"AO","name":"Angola","region":"Africa","translatedName":[{"key":"FR","value":"Angola"},{"key":"GE","value":"Angola"},{"key":"IT","value":"Angola"},{"key":"JP","value":"アンゴラ"},{"key":"RU","value":"Ангола"},{"key":"ES","value":"Angola"}]},{"area":91,"callingCode":"1264","code":"AI","name":"Anguilla","region":"Americas","translatedName":[{"key":"FR","value":"Anguilla"},{"key":"GE","value":"Anguilla"},{"key":"IT","value":"Anguilla"},{"key":"JP","value":"アンギラ"},{"key":"RU","value":"Ангилья"},{"key":"ES","value":"Anguilla"}]},{"area":1580,"callingCode":"358","code":"AX","name":"Åland Islands","region":"Europe","translatedName":[{"key":"FR","value":"Ahvenanmaa"},{"key":"GE","value":"Åland"},{"key":"IT","value":"Isole Aland"},{"key":"JP","value":"オーランド諸島"},{"key":"RU","value":"Аландские острова"},{"key":"ES","value":"Alandia"}]},{"area":28748,"callingCode":"355","code":"AL","name":"Albania","region":"Europe","translatedName":[{"key":"FR","value":"Albanie"},{"key":"GE","value":"Albanien"},{"key":"IT","value":"Albania"},{"key":"JP","value":"アルバニア"},{"key":"RU","value":"Албания"},{"key":"ES","value":"Albania"}]},{"area":468,"callingCode":"376","code":"AD","name":"Andorra","region":"Europe","translatedName":[{"key":"FR","value":"Andorre"},{"key":"GE","value":"Andorra"},{"key":"IT","value":"Andorra"},{"key":"JP","value":"アンドラ"},{"key":"RU","value":"Андорра"},{"key":"ES","value":"Andorra"}]},{"area":83600,"callingCode":"971","code":"AE","name":"United Arab Emirates","region":"Asia","translatedName":[{"key":"FR","value":"Émirats arabes unis"},{"key":"GE","value":"Vereinigte Arabische Emirate"},{"key":"IT","value":"Emirati Arabi Uniti"},{"key":"JP","value":"アラブ首長国連邦"},{"key":"RU","value":"Объединённые Арабские Эмираты"},{"key":"ES","value":"Emiratos Árabes Unidos"}]},{"area":2780400,"callingCode":"54","code":"AR","name":"Argentina","region":"Americas","translatedName":[{"key":"FR","value":"Argentine"},{"key":"GE","value":"Argentinien"},{"key":"IT","value":"Argentina"},{"key":"JP","value":"アルゼンチン"},{"key":"RU","value":"Аргентина"},{"key":"ES","value":"Argentina"}]},{"area":29743,"callingCode":"374","code":"AM","name":"Armenia","region":"Asia","translatedName":[{"key":"FR","value":"Arménie"},{"key":"GE","value":"Armenien"},{"key":"IT","value":"Armenia"},{"key":"JP","value":"アルメニア"},{"key":"RU","value":"Армения"},{"key":"ES","value":"Armenia"}]},{"area":199,"callingCode":"1684","code":"AS","name":"American Samoa","region":"Oceania","translatedName":[{"key":"FR","value":"Samoa américaines"},{"key":"GE","value":"Amerikanisch-Samoa"},{"key":"IT","value":"Samoa Americane"},{"key":"JP","value":"アメリカ領サモア"},{"key":"RU","value":"Американское Самоа"},{"key":"ES","value":"Samoa Americana"}]},{"area":442,"callingCode":"1268","code":"AG","name":"Antigua and Barbuda","region":"Americas","translatedName":[{"key":"FR","value":"Antigua-et-Barbuda"},{"key":"GE","value":"Antigua und Barbuda"},{"key":"IT","value":"Antigua e Barbuda"},{"key":"JP","value":"アンティグア・バーブーダ"},{"key":"RU","value":"Антигуа и Барбуда"},{"key":"ES","value":"Antigua y Barbuda"}]},{"area":7692024,"callingCode":"61","code":"AU","name":"Australia","region":"Oceania","translatedName":[{"key":"FR","value":"Australie"},{"key":"GE","value":"Australien"},{"key":"IT","value":"Australia"},{"key":"JP","value":"オーストラリア"},{"key":"RU","value":"Австралия"},{"key":"ES","value":"Australia"}]},{"area":83871,"callingCode":"43","code":"AT","name":"Austria","region":"Europe","translatedName":[{"key":"FR","value":"Autriche"},{"key":"GE","value":"Österreich"},{"key":"IT","value":"Austria"},{"key":"JP","value":"オーストリア"},{"key":"RU","value":"Австрия"},{"key":"ES","value":"Austria"}]},{"area":86600,"callingCode":"994","code":"AZ","name":"Azerbaijan","region":"Asia","translatedName":[{"key":"FR","value":"Azerbaïdjan"},{"key":"GE","value":"Aserbaidschan"},{"key":"IT","value":"Azerbaijan"},{"key":"JP","value":"アゼルバイジャン"},{"key":"RU","value":"Азербайджан"},{"key":"ES","value":"Azerbaiyán"}]},{"area":27834,"callingCode":"257","code":"BI","name":"Burundi","region":"Africa","translatedName":[{"key":"FR","value":"Burundi"},{"key":"GE","value":"Burundi"},{"key":"IT","value":"Burundi"},{"key":"JP","value":"ブルンジ"},{"key":"RU","value":"Бурунди"},{"key":"ES","value":"Burundi"}]},{"area":30528,"callingCode":"32","code":"BE","name":"Belgium","region":"Europe","translatedName":[{"key":"FR","value":"Belgique"},{"key":"GE","value":"Belgien"},{"key":"IT","value":"Belgio"},{"key":"JP","value":"ベルギー"},{"key":"RU","value":"Бельгия"},{"key":"ES","value":"Bélgica"}]},{"area":112622,"callingCode":"229","code":"BJ","name":"Benin","region":"Africa","translatedName":[{"key":"FR","value":"Bénin"},{"key":"GE","value":"Benin"},{"key":"IT","value":"Benin"},{"key":"JP","value":"ベナン"},{"key":"RU","value":"Бенин"},{"key":"ES","value":"Benín"}]},{"area":272967,"callingCode":"226","code":"BF","name":"Burkina Faso","region":"Africa","translatedName":[{"key":"FR","value":"Burkina Faso"},{"key":"GE","value":"Burkina Faso"},{"key":"IT","value":"Burkina Faso"},{"key":"JP","value":"ブルキナファソ"},{"key":"RU","value":"Буркина-Фасо"},{"key":"ES","value":"Burkina Faso"}]},{"area":147570,"callingCode":"880","code":"BD","name":"Bangladesh","region":"Asia","translatedName":[{"key":"FR","value":"Bangladesh"},{"key":"GE","value":"Bangladesch"},{"key":"IT","value":"Bangladesh"},{"key":"JP","value":"バングラデシュ"},{"key":"RU","value":"Бангладеш"},{"key":"ES","value":"Bangladesh"}]},{"area":110879,"callingCode":"359","code":"BG","name":"Bulgaria","region":"Europe","translatedName":[{"key":"FR","value":"Bulgarie"},{"key":"GE","value":"Bulgarien"},{"key":"IT","value":"Bulgaria"},{"key":"JP","value":"ブルガリア"},{"key":"RU","value":"Болгария"},{"key":"ES","value":"Bulgaria"}]},{"area":765,"callingCode":"973","code":"BH","name":"Bahrain","region":"Asia","translatedName":[{"key":"FR","value":"Bahreïn"},{"key":"GE","value":"Bahrain"},{"key":"IT","value":"Bahrein"},{"key":"JP","value":"バーレーン"},{"key":"RU","value":"Бахрейн"},{"key":"ES","value":"Bahrein"}]},{"area":13943,"callingCode":"1242","code":"BS","name":"Bahamas","region":"Americas","translatedName":[{"key":"FR","value":"Bahamas"},{"key":"GE","value":"Bahamas"},{"key":"IT","value":"Bahamas"},{"key":"JP","value":"バハマ"},{"key":"RU","value":"Багамские Острова"},{"key":"ES","value":"Bahamas"}]},{"area":51209,"callingCode":"387","code":"BA","name":"Bosnia and Herzegovina","region":"Europe","translatedName":[{"key":"FR","value":"Bosnie-Herzégovine"},{"key":"GE","value":"Bosnien und Herzegowina"},{"key":"IT","value":"Bosnia ed Erzegovina"},{"key":"JP","value":"ボスニア・ヘルツェゴビナ"},{"key":"RU","value":"Босния и Герцеговина"},{"key":"ES","value":"Bosnia y Herzegovina"}]},{"area":21,"callingCode":"590","code":"BL","name":"Saint Barthélemy","region":"Americas","translatedName":[{"key":"FR","value":"Saint-Barthélemy"},{"key":"GE","value":"Saint-Barthélemy"},{"key":"IT","value":"Antille Francesi"},{"key":"JP","value":"サン・バルテルミー"},{"key":"RU","value":"Сен-Бартелеми"},{"key":"ES","value":"San Bartolomé"}]},{"area":207600,"callingCode":"375","code":"BY","name":"Belarus","region":"Europe","translatedName":[{"key":"FR","value":"Biélorussie"},{"key":"GE","value":"Weißrussland"},{"key":"IT","value":"Bielorussia"},{"key":"JP","value":"ベラルーシ"},{"key":"RU","value":"Беларусь"},{"key":"ES","value":"Bielorrusia"}]},{"area":22966,"callingCode":"501","code":"BZ","name":"Belize","region":"Americas","translatedName":[{"key":"FR","value":"Belize"},{"key":"GE","value":"Belize"},{"key":"IT","value":"Belize"},{"key":"JP","value":"ベリーズ"},{"key":"RU","value":"Белиз"},{"key":"ES","value":"Belice"}]},{"area":54,"callingCode":"1441","code":"BM","name":"Bermuda","region":"Americas","translatedName":[{"key":"FR","value":"Bermudes"},{"key":"GE","value":"Bermuda"},{"key":"IT","value":"Bermuda"},{"key":"JP","value":"バミューダ"},{"key":"RU","value":"Бермудские Острова"},{"key":"ES","value":"Bermudas"}]},{"area":1098581,"callingCode":"591","code":"BO","name":"Bolivia","region":"Americas","translatedName":[{"key":"FR","value":"Bolivie"},{"key":"GE","value":"Bolivien"},{"key":"IT","value":"Bolivia"},{"key":"JP","value":"ボリビア多民族国"},{"key":"RU","value":"Боливия"},{"key":"ES","value":"Bolivia"}]},{"area":8515767,"callingCode":"55","code":"BR","name":"Brazil","region":"Americas","translatedName":[{"key":"FR","value":"Brésil"},{"key":"GE","value":"Brasilien"},{"key":"IT","value":"Brasile"},{"key":"JP","value":"ブラジル"},{"key":"RU","value":"Бразилия"},{"key":"ES","value":"Brasil"}]},{"area":430,"callingCode":"1246","code":"BB","name":"Barbados","region":"Americas","translatedName":[{"key":"FR","value":"Barbade"},{"key":"GE","value":"Barbados"},{"key":"IT","value":"Barbados"},{"key":"JP","value":"バルバドス"},{"key":"RU","value":"Барбадос"},{"key":"ES","value":"Barbados"}]},{"area":5765,"callingCode":"673","code":"BN","name":"Brunei","region":"Asia","translatedName":[{"key":"FR","value":"Brunei"},{"key":"GE","value":"Brunei"},{"key":"IT","value":"Brunei"},{"key":"JP","value":"ブルネイ・ダルサラーム"},{"key":"RU","value":"Бруней"},{"key":"ES","value":"Brunei"}]},{"area":38394,"callingCode":"975","code":"BT","name":"Bhutan","region":"Asia","translatedName":[{"key":"FR","value":"Bhoutan"},{"key":"GE","value":"Bhutan"},{"key":"IT","value":"Bhutan"},{"key":"JP","value":"ブータン"},{"key":"RU","value":"Бутан"},{"key":"ES","value":"Bután"}]},{"area":582000,"callingCode":"267","code":"BW","name":"Botswana","region":"Africa","translatedName":[{"key":"FR","value":"Botswana"},{"key":"GE","value":"Botswana"},{"key":"IT","value":"Botswana"},{"key":"JP","value":"ボツワナ"},{"key":"RU","value":"Ботсвана"},{"key":"ES","value":"Botswana"}]},{"area":622984,"callingCode":"236","code":"CF","name":"Central African Republic","region":"Africa","translatedName":[{"key":"FR","value":"République centrafricaine"},{"key":"GE","value":"Zentralafrikanische Republik"},{"key":"IT","value":"Repubblica Centrafricana"},{"key":"JP","value":"中央アフリカ共和国"},{"key":"RU","value":"Центральноафриканская Республика"},{"key":"ES","value":"República Centroafricana"}]},{"area":9984670,"callingCode":"1","code":"CA","name":"Canada","region":"Americas","translatedName":[{"key":"FR","value":"Canada"},{"key":"GE","value":"Kanada"},{"key":"IT","value":"Canada"},{"key":"JP","value":"カナダ"},{"key":"RU","value":"Канада"},{"key":"ES","value":"Canadá"}]},{"area":14,"callingCode":"61","code":"CC","name":"Cocos (Keeling) Islands","region":"Oceania","translatedName":[{"key":"FR","value":"Îles Cocos"},{"key":"GE","value":"Kokosinseln"},{"key":"IT","value":"Isole Cocos e Keeling"},{"key":"JP","value":"ココス（キーリング）諸島"},{"key":"RU","value":"Кокосовые острова"},{"key":"ES","value":"Islas Cocos o Islas Keeling"}]},{"area":41284,"callingCode":"41","code":"CH","name":"Switzerland","region":"Europe","translatedName":[{"key":"FR","value":"Suisse"},{"key":"GE","value":"Schweiz"},{"key":"IT","value":"Svizzera"},{"key":"JP","value":"スイス"},{"key":"RU","value":"Швейцария"},{"key":"ES","value":"Suiza"}]},{"area":756102,"callingCode":"56","code":"CL","name":"Chile","region":"Americas","translatedName":[{"key":"FR","value":"Chili"},{"key":"GE","value":"Chile"},{"key":"IT","value":"Cile"},{"key":"JP","value":"チリ"},{"key":"RU","value":"Чили"},{"key":"ES","value":"Chile"}]},{"area":9706961,"callingCode":"86","code":"CN","name":"China","region":"Asia","translatedName":[{"key":"FR","value":"Chine"},{"key":"GE","value":"China"},{"key":"IT","value":"Cina"},{"key":"JP","value":"中国"},{"key":"RU","value":"Китай"},{"key":"ES","value":"China"}]},{"area":322463,"callingCode":"225","code":"CI","name":"Ivory Coast","region":"Africa","translatedName":[{"key":"FR","value":"Côte d'Ivoire"},{"key":"GE","value":"Elfenbeinküste"},{"key":"IT","value":"Costa d'Avorio"},{"key":"JP","value":"コートジボワール"},{"key":"RU","value":"Кот-д’Ивуар"},{"key":"ES","value":"Costa de Marfil"}]},{"area":475442,"callingCode":"237","code":"CM","name":"Cameroon","region":"Africa","translatedName":[{"key":"FR","value":"Cameroun"},{"key":"GE","value":"Kamerun"},{"key":"IT","value":"Camerun"},{"key":"JP","value":"カメルーン"},{"key":"RU","value":"Камерун"},{"key":"ES","value":"Camerún"}]},{"area":2344858,"callingCode":"243","code":"CD","name":"DR Congo","region":"Africa","translatedName":[{"key":"FR","value":"Congo (Rép. dém.)"},{"key":"GE","value":"Kongo (Dem. Rep.)"},{"key":"IT","value":"Congo (Rep. Dem.)"},{"key":"JP","value":"コンゴ民主共和国"},{"key":"RU","value":"Демократическая Республика Конго"},{"key":"ES","value":"Congo (Rep. Dem.)"}]},{"area":342000,"callingCode":"242","code":"CG","name":"Republic of the Congo","region":"Africa","translatedName":[{"key":"FR","value":"Congo"},{"key":"GE","value":"Kongo"},{"key":"IT","value":"Congo"},{"key":"JP","value":"コンゴ共和国"},{"key":"RU","value":"Республика Конго"},{"key":"ES","value":"Congo"}]},{"area":236,"callingCode":"682","code":"CK","name":"Cook Islands","region":"Oceania","translatedName":[{"key":"FR","value":"Îles Cook"},{"key":"GE","value":"Cookinseln"},{"key":"IT","value":"Isole Cook"},{"key":"JP","value":"クック諸島"},{"key":"RU","value":"Острова Кука"},{"key":"ES","value":"Islas Cook"}]},{"area":1141748,"callingCode":"57","code":"CO","name":"Colombia","region":"Americas","translatedName":[{"key":"FR","value":"Colombie"},{"key":"GE","value":"Kolumbien"},{"key":"IT","value":"Colombia"},{"key":"JP","value":"コロンビア"},{"key":"RU","value":"Колумбия"},{"key":"ES","value":"Colombia"}]},{"area":1862,"callingCode":"269","code":"KM","name":"Comoros","region":"Africa","translatedName":[{"key":"FR","value":"Comores"},{"key":"GE","value":"Union der Komoren"},{"key":"IT","value":"Comore"},{"key":"JP","value":"コモロ"},{"key":"RU","value":"Коморы"},{"key":"ES","value":"Comoras"}]},{"area":4033,"callingCode":"238","code":"CV","name":"Cape Verde","region":"Africa","translatedName":[{"key":"FR","value":"Îles du Cap-Vert"},{"key":"GE","value":"Kap Verde"},{"key":"IT","value":"Capo Verde"},{"key":"JP","value":"カーボベルデ"},{"key":"RU","value":"Кабо-Верде"},{"key":"ES","value":"Cabo Verde"}]},{"area":51100,"callingCode":"506","code":"CR","name":"Costa Rica","region":"Americas","translatedName":[{"key":"FR","value":"Costa Rica"},{"key":"GE","value":"Costa Rica"},{"key":"IT","value":"Costa Rica"},{"key":"JP","value":"コスタリカ"},{"key":"RU","value":"Коста-Рика"},{"key":"ES","value":"Costa Rica"}]},{"area":109884,"callingCode":"53","code":"CU","name":"Cuba","region":"Americas","translatedName":[{"key":"FR","value":"Cuba"},{"key":"GE","value":"Kuba"},{"key":"IT","value":"Cuba"},{"key":"JP","value":"キューバ"},{"key":"RU","value":"Куба"},{"key":"ES","value":"Cuba"}]},{"area":444,"callingCode":"5999","code":"CW","name":"Curaçao","region":"Americas","translatedName":[{"key":"FR","value":"Curaçao"},{"key":"GE","value":"Curaçao"},{"key":"RU","value":"Кюрасао"},{"key":"ES","value":"Curazao"}]},{"area":135,"callingCode":"61","code":"CX","name":"Christmas Island","region":"Oceania","translatedName":[{"key":"FR","value":"Île Christmas"},{"key":"GE","value":"Weihnachtsinsel"},{"key":"IT","value":"Isola di Natale"},{"key":"JP","value":"クリスマス島"},{"key":"RU","value":"Остров Рождества"},{"key":"ES","value":"Isla de Navidad"}]},{"area":264,"callingCode":"1345","code":"KY","name":"Cayman Islands","region":"Americas","translatedName":[{"key":"FR","value":"Îles Caïmans"},{"key":"GE","value":"Kaimaninseln"},{"key":"IT","value":"Isole Cayman"},{"key":"JP","value":"ケイマン諸島"},{"key":"RU","value":"Каймановы острова"},{"key":"ES","value":"Islas Caimán"}]},{"area":9251,"callingCode":"357","code":"CY","name":"Cyprus","region":"Europe","translatedName":[{"key":"FR","value":"Chypre"},{"key":"GE","value":"Zypern"},{"key":"IT","value":"Cipro"},{"key":"JP","value":"キプロス"},{"key":"RU","value":"Кипр"},{"key":"ES","value":"Chipre"}]},{"area":78865,"callingCode":"420","code":"CZ","name":"Czechia","region":"Europe","translatedName":[{"key":"FR","value":"Tchéquie"},{"key":"GE","value":"Tschechien"},{"key":"IT","value":"Cechia"},{"key":"JP","value":"チェコ"},{"key":"RU","value":"Чехия"},{"key":"ES","value":"Chequia"}]},{"area":357114,"callingCode":"49","code":"DE","name":"Germany","region":"Europe","translatedName":[{"key":"FR","value":"Allemagne"},{"key":"GE","value":"Deutschland"},{"key":"IT","value":"Germania"},{"key":"JP","value":"ドイツ"},{"key":"RU","value":"Германия"},{"key":"ES","value":"Alemania"}]},{"area":23200,"callingCode":"253","code":"DJ","name":"Djibouti","region":"Africa","translatedName":[{"key":"FR","value":"Djibouti"},{"key":"GE","value":"Dschibuti"},{"key":"IT","value":"Gibuti"},{"key":"JP","value":"ジブチ"},{"key":"RU","value":"Джибути"},{"key":"ES","value":"Djibouti"}]},{"area":751,"callingCode":"1767","code":"DM","name":"Dominica","region":"Americas","translatedName":[{"key":"FR","value":"Dominique"},{"key":"GE","value":"Dominica"},{"key":"IT","value":"Dominica"},{"key":"JP","value":"ドミニカ国"},{"key":"RU","value":"Доминика"},{"key":"ES","value":"Dominica"}]},{"area":43094,"callingCode":"45","code":"DK","name":"Denmark","region":"Europe","translatedName":[{"key":"FR","value":"Danemark"},{"key":"GE","value":"Dänemark"},{"key":"IT","value":"Danimarca"},{"key":"JP","value":"デンマーク"},{"key":"RU","value":"Дания"},{"key":"ES","value":"Dinamarca"}]},{"area":2381741,"callingCode":"213","code":"DZ","name":"Algeria","region":"Africa","translatedName":[{"key":"FR","value":"Algérie"},{"key":"GE","value":"Algerien"},{"key":"IT","value":"Algeria"},{"key":"JP","value":"アルジェリア"},{"key":"RU","value":"Алжир"},{"key":"ES","value":"Argelia"}]},{"area":276841,"callingCode":"593","code":"EC","name":"Ecuador","region":"Americas","translatedName":[{"key":"FR","value":"Équateur"},{"key":"GE","value":"Ecuador"},{"key":"IT","value":"Ecuador"},{"key":"JP","value":"エクアドル"},{"key":"RU","value":"Эквадор"},{"key":"ES","value":"Ecuador"}]},{"area":1002450,"callingCode":"20","code":"EG","name":"Egypt","region":"Africa","translatedName":[{"key":"FR","value":"Égypte"},{"key":"GE","value":"Ägypten"},{"key":"IT","value":"Egitto"},{"key":"JP","value":"エジプト"},{"key":"RU","value":"Египет"},{"key":"ES","value":"Egipto"}]},{"area":117600,"callingCode":"291","code":"ER","name":"Eritrea","region":"Africa","translatedName":[{"key":"FR","value":"Érythrée"},{"key":"GE","value":"Eritrea"},{"key":"IT","value":"Eritrea"},{"key":"JP","value":"エリトリア"},{"key":"RU","value":"Эритрея"},{"key":"ES","value":"Eritrea"}]},{"area":266000,"callingCode":"212","code":"EH","name":"Western Sahara","region":"Africa","translatedName":[{"key":"FR","value":"Sahara Occidental"},{"key":"GE","value":"Westsahara"},{"key":"IT","value":"Sahara Occidentale"},{"key":"JP","value":"西サハラ"},{"key":"RU","value":"Западная Сахара"},{"key":"ES","value":"Sahara Occidental"}]},{"area":505992,"callingCode":"34","code":"ES","name":"Spain","region":"Europe","translatedName":[{"key":"FR","value":"Espagne"},{"key":"GE","value":"Spanien"},{"key":"IT","value":"Spagna"},{"key":"JP","value":"スペイン"},{"key":"RU","value":"Испания"},{"key":"ES","value":"España"}]},{"area":45227,"callingCode":"372","code":"EE","name":"Estonia","region":"Europe","translatedName":[{"key":"FR","value":"Estonie"},{"key":"GE","value":"Estland"},{"key":"IT","value":"Estonia"},{"key":"JP","value":"エストニア"},{"key":"RU","value":"Эстония"},{"key":"ES","value":"Estonia"}]},{"area":1104300,"callingCode":"251","code":"ET","name":"Ethiopia","region":"Africa","translatedName":[{"key":"FR","value":"Éthiopie"},{"key":"GE","value":"Äthiopien"},{"key":"IT","value":"Etiopia"},{"key":"JP","value":"エチオピア"},{"key":"RU","value":"Эфиопия"},{"key":"ES","value":"Etiopía"}]},{"area":338424,"callingCode":"358","code":"FI","name":"Finland","region":"Europe","translatedName":[{"key":"FR","value":"Finlande"},{"key":"GE","value":"Finnland"},{"key":"IT","value":"Finlandia"},{"key":"JP","value":"フィンランド"},{"key":"RU","value":"Финляндия"},{"key":"ES","value":"Finlandia"}]},{"area":18272,"callingCode":"679","code":"FJ","name":"Fiji","region":"Oceania","translatedName":[{"key":"FR","value":"Fidji"},{"key":"GE","value":"Fidschi"},{"key":"IT","value":"Figi"},{"key":"JP","value":"フィジー"},{"key":"RU","value":"Фиджи"},{"key":"ES","value":"Fiyi"}]},{"area":12173,"callingCode":"500","code":"FK","name":"Falkland Islands","region":"Americas","translatedName":[{"key":"FR","value":"Îles Malouines"},{"key":"GE","value":"Falklandinseln"},{"key":"IT","value":"Isole Falkland o Isole Malvine"},{"key":"JP","value":"フォークランド（マルビナス）諸島"},{"key":"RU","value":"Фолклендские острова"},{"key":"ES","value":"Islas Malvinas"}]},{"area":551695,"callingCode":"33","code":"FR","name":"France","region":"Europe","translatedName":[{"key":"FR","value":"France"},{"key":"GE","value":"Frankreich"},{"key":"IT","value":"Francia"},{"key":"JP","value":"フランス"},{"key":"RU","value":"Франция"},{"key":"ES","value":"Francia"}]},{"area":1393,"callingCode":"298","code":"FO","name":"Faroe Islands","region":"Europe","translatedName":[{"key":"FR","value":"Îles Féroé"},{"key":"GE","value":"Färöer-Inseln"},{"key":"IT","value":"Isole Far Oer"},{"key":"JP","value":"フェロー諸島"},{"key":"RU","value":"Фарерские острова"},{"key":"ES","value":"Islas Faroe"}]},{"area":702,"callingCode":"691","code":"FM","name":"Micronesia","region":"Oceania","translatedName":[{"key":"FR","value":"Micronésie"},{"key":"GE","value":"Mikronesien"},{"key":"IT","value":"Micronesia"},{"key":"JP","value":"ミクロネシア連邦"},{"key":"RU","value":"Федеративные Штаты Микронезии"},{"key":"ES","value":"Micronesia"}]},{"area":267668,"callingCode":"241","code":"GA","name":"Gabon","region":"Africa","translatedName":[{"key":"FR","value":"Gabon"},{"key":"GE","value":"Gabun"},{"key":"IT","value":"Gabon"},{"key":"JP","value":"ガボン"},{"key":"RU","value":"Габон"},{"key":"ES","value":"Gabón"}]},{"area":242900,"callingCode":"44","code":"GB","name":"United Kingdom","region":"Europe","translatedName":[{"key":"FR","value":"Royaume-Uni"},{"key":"GE","value":"Vereinigtes Königreich"},{"key":"IT","value":"Regno Unito"},{"key":"JP","value":"イギリス"},{"key":"RU","value":"Великобритания"},{"key":"ES","value":"Reino Unido"}]},{"area":69700,"callingCode":"995","code":"GE","name":"Georgia","region":"Asia","translatedName":[{"key":"FR","value":"Géorgie"},{"key":"GE","value":"Georgien"},{"key":"IT","value":"Georgia"},{"key":"JP","value":"グルジア"},{"key":"RU","value":"Грузия"},{"key":"ES","value":"Georgia"}]},{"area":78,"callingCode":"44","code":"GG","name":"Guernsey","region":"Europe","translatedName":[{"key":"FR","value":"Guernesey"},{"key":"GE","value":"Guernsey"},{"key":"IT","value":"Guernsey"},{"key":"JP","value":"ガーンジー"},{"key":"RU","value":"Гернси"},{"key":"ES","value":"Guernsey"}]},{"area":238533,"callingCode":"233","code":"GH","name":"Ghana","region":"Africa","translatedName":[{"key":"FR","value":"Ghana"},{"key":"GE","value":"Ghana"},{"key":"IT","value":"Ghana"},{"key":"JP","value":"ガーナ"},{"key":"RU","value":"Гана"},{"key":"ES","value":"Ghana"}]},{"area":6,"callingCode":"350","code":"GI","name":"Gibraltar","region":"Europe","translatedName":[{"key":"FR","value":"Gibraltar"},{"key":"GE","value":"Gibraltar"},{"key":"IT","value":"Gibilterra"},{"key":"JP","value":"ジブラルタル"},{"key":"RU","value":"Гибралтар"},{"key":"ES","value":"Gibraltar"}]},{"area":245857,"callingCode":"224","code":"GN","name":"Guinea","region":"Africa","translatedName":[{"key":"FR","value":"Guinée"},{"key":"GE","value":"Guinea"},{"key":"IT","value":"Guinea"},{"key":"JP","value":"ギニア"},{"key":"RU","value":"Гвинея"},{"key":"ES","value":"Guinea"}]},{"area":1628,"callingCode":"590","code":"GP","name":"Guadeloupe","region":"Americas","translatedName":[{"key":"FR","value":"Guadeloupe"},{"key":"GE","value":"Guadeloupe"},{"key":"IT","value":"Guadeloupa"},{"key":"JP","value":"グアドループ"},{"key":"RU","value":"Гваделупа"},{"key":"ES","value":"Guadalupe"}]},{"area":10689,"callingCode":"220","code":"GM","name":"Gambia","region":"Africa","translatedName":[{"key":"FR","value":"Gambie"},{"key":"GE","value":"Gambia"},{"key":"IT","value":"Gambia"},{"key":"JP","value":"ガンビア"},{"key":"RU","value":"Гамбия"},{"key":"ES","value":"Gambia"}]},{"area":36125,"callingCode":"245","code":"GW","name":"Guinea-Bissau","region":"Africa","translatedName":[{"key":"FR","value":"Guinée-Bissau"},{"key":"GE","value":"Guinea-Bissau"},{"key":"IT","value":"Guinea-Bissau"},{"key":"JP","value":"ギニアビサウ"},{"key":"RU","value":"Гвинея-Бисау"},{"key":"ES","value":"Guinea-Bisáu"}]},{"area":28051,"callingCode":"240","code":"GQ","name":"Equatorial Guinea","region":"Africa","translatedName":[{"key":"FR","value":"Guinée équatoriale"},{"key":"GE","value":"Äquatorialguinea"},{"key":"IT","value":"Guinea Equatoriale"},{"key":"JP","value":"赤道ギニア"},{"key":"RU","value":"Экваториальная Гвинея"},{"key":"ES","value":"Guinea Ecuatorial"}]},{"area":131990,"callingCode":"30","code":"GR","name":"Greece","region":"Europe","translatedName":[{"key":"FR","value":"Grèce"},{"key":"GE","value":"Griechenland"},{"key":"IT","value":"Grecia"},{"key":"JP","value":"ギリシャ"},{"key":"RU","value":"Греция"},{"key":"ES","value":"Grecia"}]},{"area":344,"callingCode":"1473","code":"GD","name":"Grenada","region":"Americas","translatedName":[{"key":"FR","value":"Grenade"},{"key":"GE","value":"Grenada"},{"key":"IT","value":"Grenada"},{"key":"JP","value":"グレナダ"},{"key":"RU","value":"Гренада"},{"key":"ES","value":"Grenada"}]},{"area":2166086,"callingCode":"299","code":"GL","name":"Greenland","region":"Americas","translatedName":[{"key":"FR","value":"Groenland"},{"key":"GE","value":"Grönland"},{"key":"IT","value":"Groenlandia"},{"key":"JP","value":"グリーンランド"},{"key":"RU","value":"Гренландия"},{"key":"ES","value":"Groenlandia"}]},{"area":108889,"callingCode":"502","code":"GT","name":"Guatemala","region":"Americas","translatedName":[{"key":"FR","value":"Guatemala"},{"key":"GE","value":"Guatemala"},{"key":"IT","value":"Guatemala"},{"key":"JP","value":"グアテマラ"},{"key":"RU","value":"Гватемала"},{"key":"ES","value":"Guatemala"}]},{"area":83534,"callingCode":"594","code":"GF","name":"French Guiana","region":"Americas","translatedName":[{"key":"FR","value":"Guyane"},{"key":"GE","value":"Französisch Guyana"},{"key":"IT","value":"Guyana francese"},{"key":"JP","value":"フランス領ギアナ"},{"key":"RU","value":"Французская Гвиана"},{"key":"ES","value":"Guayana Francesa"}]},{"area":549,"callingCode":"1671","code":"GU","name":"Guam","region":"Oceania","translatedName":[{"key":"FR","value":"Guam"},{"key":"GE","value":"Guam"},{"key":"IT","value":"Guam"},{"key":"JP","value":"グアム"},{"key":"RU","value":"Гуам"},{"key":"ES","value":"Guam"}]},{"area":214969,"callingCode":"592","code":"GY","name":"Guyana","region":"Americas","translatedName":[{"key":"FR","value":"Guyana"},{"key":"GE","value":"Guyana"},{"key":"IT","value":"Guyana"},{"key":"JP","value":"ガイアナ"},{"key":"RU","value":"Гайана"},{"key":"ES","value":"Guyana"}]},{"area":1104,"callingCode":"852","code":"HK","name":"Hong Kong","region":"Asia","translatedName":[{"key":"FR","value":"Hong Kong"},{"key":"GE","value":"Hongkong"},{"key":"IT","value":"Hong Kong"},{"key":"JP","value":"香港"},{"key":"RU","value":"Гонконг"},{"key":"ES","value":"Hong Kong"}]},{"area":112492,"callingCode":"504","code":"HN","name":"Honduras","region":"Americas","translatedName":[{"key":"FR","value":"Honduras"},{"key":"GE","value":"Honduras"},{"key":"IT","value":"Honduras"},{"key":"JP","value":"ホンジュラス"},{"key":"RU","value":"Гондурас"},{"key":"ES","value":"Honduras"}]},{"area":56594,"callingCode":"385","code":"HR","name":"Croatia","region":"Europe","translatedName":[{"key":"FR","value":"Croatie"},{"key":"GE","value":"Kroatien"},{"key":"IT","value":"Croazia"},{"key":"JP","value":"クロアチア"},{"key":"RU","value":"Хорватия"},{"key":"ES","value":"Croacia"}]},{"area":27750,"callingCode":"509","code":"HT","name":"Haiti","region":"Americas","translatedName":[{"key":"FR","value":"Haïti"},{"key":"GE","value":"Haiti"},{"key":"IT","value":"Haiti"},{"key":"JP","value":"ハイチ"},{"key":"RU","value":"Гаити"},{"key":"ES","value":"Haiti"}]},{"area":93028,"callingCode":"36","code":"HU","name":"Hungary","region":"Europe","translatedName":[{"key":"FR","value":"Hongrie"},{"key":"GE","value":"Ungarn"},{"key":"IT","value":"Ungheria"},{"key":"JP","value":"ハンガリー"},{"key":"RU","value":"Венгрия"},{"key":"ES","value":"Hungría"}]},{"area":1904569,"callingCode":"62","code":"ID","name":"Indonesia","region":"Asia","translatedName":[{"key":"FR","value":"Indonésie"},{"key":"GE","value":"Indonesien"},{"key":"IT","value":"Indonesia"},{"key":"JP","value":"インドネシア"},{"key":"RU","value":"Индонезия"},{"key":"ES","value":"Indonesia"}]},{"area":572,"callingCode":"44","code":"IM","name":"Isle of Man","region":"Europe","translatedName":[{"key":"FR","value":"Île de Man"},{"key":"GE","value":"Insel Man"},{"key":"IT","value":"Isola di Man"},{"key":"JP","value":"マン島"},{"key":"RU","value":"Остров Мэн"},{"key":"ES","value":"Isla de Man"}]},{"area":3287590,"callingCode":"91","code":"IN","name":"India","region":"Asia","translatedName":[{"key":"FR","value":"Inde"},{"key":"GE","value":"Indien"},{"key":"IT","value":"India"},{"key":"JP","value":"インド"},{"key":"RU","value":"Индия"},{"key":"ES","value":"India"}]},{"area":60,"callingCode":"246","code":"IO","name":"British Indian Ocean Territory","region":"Africa","translatedName":[{"key":"FR","value":"Territoire britannique de l'océan Indien"},{"key":"GE","value":"Britisches Territorium im Indischen Ozean"},{"key":"IT","value":"Territorio britannico dell'oceano indiano"},{"key":"JP","value":"イギリス領インド洋地域"},{"key":"RU","value":"Британская территория в Индийском океане"},{"key":"ES","value":"Territorio Británico del Océano Índico"}]},{"area":70273,"callingCode":"353","code":"IE","name":"Ireland","region":"Europe","translatedName":[{"key":"FR","value":"Irlande"},{"key":"GE","value":"Irland"},{"key":"IT","value":"Irlanda"},{"key":"JP","value":"アイルランド"},{"key":"RU","value":"Ирландия"},{"key":"ES","value":"Irlanda"}]},{"area":1648195,"callingCode":"98","code":"IR","name":"Iran","region":"Asia","translatedName":[{"key":"FR","value":"Iran"},{"key":"GE","value":"Iran"},{"key":"IT","value":"Iran"},{"key":"JP","value":"イラン・イスラム共和国"},{"key":"RU","value":"Иран"},{"key":"ES","value":"Iran"}]},{"area":438317,"callingCode":"964","code":"IQ","name":"Iraq","region":"Asia","translatedName":[{"key":"FR","value":"Irak"},{"key":"GE","value":"Irak"},{"key":"IT","value":"Iraq"},{"key":"JP","value":"イラク"},{"key":"RU","value":"Ирак"},{"key":"ES","value":"Irak"}]},{"area":103000,"callingCode":"354","code":"IS","name":"Iceland","region":"Europe","translatedName":[{"key":"FR","value":"Islande"},{"key":"GE","value":"Island"},{"key":"IT","value":"Islanda"},{"key":"JP","value":"アイスランド"},{"key":"RU","value":"Исландия"},{"key":"ES","value":"Islandia"}]},{"area":20770,"callingCode":"972","code":"IL","name":"Israel","region":"Asia","translatedName":[{"key":"FR","value":"Israël"},{"key":"GE","value":"Israel"},{"key":"IT","value":"Israele"},{"key":"JP","value":"イスラエル"},{"key":"RU","value":"Израиль"},{"key":"ES","value":"Israel"}]},{"area":301336,"callingCode":"39","code":"IT","name":"Italy","region":"Europe","translatedName":[{"key":"FR","value":"Italie"},{"key":"GE","value":"Italien"},{"key":"IT","value":"Italia"},{"key":"JP","value":"イタリア"},{"key":"RU","value":"Италия"},{"key":"ES","value":"Italia"}]},{"area":10991,"callingCode":"1876","code":"JM","name":"Jamaica","region":"Americas","translatedName":[{"key":"FR","value":"Jamaïque"},{"key":"GE","value":"Jamaika"},{"key":"IT","value":"Giamaica"},{"key":"JP","value":"ジャマイカ"},{"key":"RU","value":"Ямайка"},{"key":"ES","value":"Jamaica"}]},{"area":116,"callingCode":"44","code":"JE","name":"Jersey","region":"Europe","translatedName":[{"key":"FR","value":"Jersey"},{"key":"GE","value":"Jersey"},{"key":"IT","value":"Isola di Jersey"},{"key":"JP","value":"ジャージー"},{"key":"RU","value":"Джерси"},{"key":"ES","value":"Jersey"}]},{"area":89342,"callingCode":"962","code":"JO","name":"Jordan","region":"Asia","translatedName":[{"key":"FR","value":"Jordanie"},{"key":"GE","value":"Jordanien"},{"key":"IT","value":"Giordania"},{"key":"JP","value":"ヨルダン"},{"key":"RU","value":"Иордания"},{"key":"ES","value":"Jordania"}]},{"area":377930,"callingCode":"81","code":"JP","name":"Japan","region":"Asia","translatedName":[{"key":"FR","value":"Japon"},{"key":"GE","value":"Japan"},{"key":"IT","value":"Giappone"},{"key":"JP","value":"日本"},{"key":"RU","value":"Япония"},{"key":"ES","value":"Japón"}]},{"area":580367,"callingCode":"254","code":"KE","name":"Kenya","region":"Africa","translatedName":[{"key":"FR","value":"Kenya"},{"key":"GE","value":"Kenia"},{"key":"IT","value":"Kenya"},{"key":"JP","value":"ケニア"},{"key":"RU","value":"Кения"},{"key":"ES","value":"Kenia"}]},{"area":199951,"callingCode":"996","code":"KG","name":"Kyrgyzstan","region":"Asia","translatedName":[{"key":"FR","value":"Kirghizistan"},{"key":"GE","value":"Kirgisistan"},{"key":"IT","value":"Kirghizistan"},{"key":"JP","value":"キルギス"},{"key":"RU","value":"Киргизия"},{"key":"ES","value":"Kirguizistán"}]},{"area":181035,"callingCode":"855","code":"KH","name":"Cambodia","region":"Asia","translatedName":[{"key":"FR","value":"Cambodge"},{"key":"GE","value":"Kambodscha"},{"key":"IT","value":"Cambogia"},{"key":"JP","value":"カンボジア"},{"key":"RU","value":"Камбоджа"},{"key":"ES","value":"Camboya"}]},{"area":811,"callingCode":"686","code":"KI","name":"Kiribati","region":"Oceania","translatedName":[{"key":"FR","value":"Kiribati"},{"key":"GE","value":"Kiribati"},{"key":"IT","value":"Kiribati"},{"key":"JP","value":"キリバス"},{"key":"RU","value":"Кирибати"},{"key":"ES","value":"Kiribati"}]},{"area":261,"callingCode":"1869","code":"KN","name":"Saint Kitts and Nevis","region":"Americas","translatedName":[{"key":"FR","value":"Saint-Christophe-et-Niévès"},{"key":"GE","value":"Saint Christopher und Nevis"},{"key":"IT","value":"Saint Kitts e Nevis"},{"key":"JP","value":"セントクリストファー・ネイビス"},{"key":"RU","value":"Сент-Китс и Невис"},{"key":"ES","value":"San Cristóbal y Nieves"}]},{"area":100210,"callingCode":"82","code":"KR","name":"South Korea","region":"Asia","translatedName":[{"key":"FR","value":"Corée du Sud"},{"key":"GE","value":"Südkorea"},{"key":"IT","value":"Corea del Sud"},{"key":"JP","value":"大韓民国"},{"key":"RU","value":"Южная Корея"},{"key":"ES","value":"Corea del Sur"}]},{"area":10908,"callingCode":"383","code":"XK","name":"Kosovo","region":"Europe","translatedName":[{"key":"FR","value":"Kosovo"},{"key":"GE","value":"Kosovo"},{"key":"IT","value":"Kosovo"},{"key":"RU","value":"Республика Косово"},{"key":"ES","value":"Kosovo"}]},{"area":17818,"callingCode":"965","code":"KW","name":"Kuwait","region":"Asia","translatedName":[{"key":"FR","value":"Koweït"},{"key":"GE","value":"Kuwait"},{"key":"IT","value":"Kuwait"},{"key":"JP","value":"クウェート"},{"key":"RU","value":"Кувейт"},{"key":"ES","value":"Kuwait"}]},{"area":236800,"callingCode":"856","code":"LA","name":"Laos","region":"Asia","translatedName":[{"key":"FR","value":"Laos"},{"key":"GE","value":"Laos"},{"key":"IT","value":"Laos"},{"key":"JP","value":"ラオス人民民主共和国"},{"key":"RU","value":"Лаос"},{"key":"ES","value":"Laos"}]},{"area":10452,"callingCode":"961","code":"LB","name":"Lebanon","region":"Asia","translatedName":[{"key":"FR","value":"Liban"},{"key":"GE","value":"Libanon"},{"key":"IT","value":"Libano"},{"key":"JP","value":"レバノン"},{"key":"RU","value":"Ливан"},{"key":"ES","value":"Líbano"}]},{"area":111369,"callingCode":"231","code":"LR","name":"Liberia","region":"Africa","translatedName":[{"key":"FR","value":"Liberia"},{"key":"GE","value":"Liberia"},{"key":"IT","value":"Liberia"},{"key":"JP","value":"リベリア"},{"key":"RU","value":"Либерия"},{"key":"ES","value":"Liberia"}]},{"area":1759540,"callingCode":"218","code":"LY","name":"Libya","region":"Africa","translatedName":[{"key":"FR","value":"Libye"},{"key":"GE","value":"Libyen"},{"key":"IT","value":"Libia"},{"key":"JP","value":"リビア"},{"key":"RU","value":"Ливия"},{"key":"ES","value":"Libia"}]},{"area":616,"callingCode":"1758","code":"LC","name":"Saint Lucia","region":"Americas","translatedName":[{"key":"FR","value":"Sainte-Lucie"},{"key":"GE","value":"Saint Lucia"},{"key":"IT","value":"Santa Lucia"},{"key":"JP","value":"セントルシア"},{"key":"RU","value":"Сент-Люсия"},{"key":"ES","value":"Santa Lucía"}]},{"area":160,"callingCode":"423","code":"LI","name":"Liechtenstein","region":"Europe","translatedName":[{"key":"FR","value":"Liechtenstein"},{"key":"GE","value":"Liechtenstein"},{"key":"IT","value":"Liechtenstein"},{"key":"JP","value":"リヒテンシュタイン"},{"key":"RU","value":"Лихтенштейн"},{"key":"ES","value":"Liechtenstein"}]},{"area":65610,"callingCode":"94","code":"LK","name":"Sri Lanka","region":"Asia","translatedName":[{"key":"FR","value":"Sri Lanka"},{"key":"GE","value":"Sri Lanka"},{"key":"IT","value":"Sri Lanka"},{"key":"JP","value":"スリランカ"},{"key":"RU","value":"Шри-Ланка"},{"key":"ES","value":"Sri Lanka"}]},{"area":30355,"callingCode":"266","code":"LS","name":"Lesotho","region":"Africa","translatedName":[{"key":"FR","value":"Lesotho"},{"key":"GE","value":"Lesotho"},{"key":"IT","value":"Lesotho"},{"key":"JP","value":"レソト"},{"key":"RU","value":"Лесото"},{"key":"ES","value":"Lesotho"}]},{"area":65300,"callingCode":"370","code":"LT","name":"Lithuania","region":"Europe","translatedName":[{"key":"FR","value":"Lituanie"},{"key":"GE","value":"Litauen"},{"key":"IT","value":"Lituania"},{"key":"JP","value":"リトアニア"},{"key":"RU","value":"Литва"},{"key":"ES","value":"Lituania"}]},{"area":2586,"callingCode":"352","code":"LU","name":"Luxembourg","region":"Europe","translatedName":[{"key":"FR","value":"Luxembourg"},{"key":"GE","value":"Luxemburg"},{"key":"IT","value":"Lussemburgo"},{"key":"JP","value":"ルクセンブルク"},{"key":"RU","value":"Люксембург"},{"key":"ES","value":"Luxemburgo"}]},{"area":64559,"callingCode":"371","code":"LV","name":"Latvia","region":"Europe","translatedName":[{"key":"FR","value":"Lettonie"},{"key":"GE","value":"Lettland"},{"key":"IT","value":"Lettonia"},{"key":"JP","value":"ラトビア"},{"key":"RU","value":"Латвия"},{"key":"ES","value":"Letonia"}]},{"area":30,"callingCode":"853","code":"MO","name":"Macau","region":"Asia","translatedName":[{"key":"FR","value":"Macao"},{"key":"GE","value":"Macao"},{"key":"IT","value":"Macao"},{"key":"JP","value":"マカオ"},{"key":"RU","value":"Макао"},{"key":"ES","value":"Macao"}]},{"area":53,"callingCode":"590","code":"MF","name":"Saint Martin","region":"Americas","translatedName":[{"key":"FR","value":"Saint-Martin"},{"key":"GE","value":"Saint Martin"},{"key":"IT","value":"Saint Martin"},{"key":"JP","value":"サン・マルタン（フランス領）"},{"key":"RU","value":"Сен-Мартен"},{"key":"ES","value":"Saint Martin"}]},{"area":446550,"callingCode":"212","code":"MA","name":"Morocco","region":"Africa","translatedName":[{"key":"FR","value":"Maroc"},{"key":"GE","value":"Marokko"},{"key":"IT","value":"Marocco"},{"key":"JP","value":"モロッコ"},{"key":"RU","value":"Марокко"},{"key":"ES","value":"Marruecos"}]},{"area":2,"callingCode":"377","code":"MC","name":"Monaco","region":"Europe","translatedName":[{"key":"FR","value":"Monaco"},{"key":"GE","value":"Monaco"},{"key":"IT","value":"Principato di Monaco"},{"key":"JP","value":"モナコ"},{"key":"RU","value":"Монако"},{"key":"ES","value":"Mónaco"}]},{"area":33846,"callingCode":"373","code":"MD","name":"Moldova","region":"Europe","translatedName":[{"key":"FR","value":"Moldavie"},{"key":"GE","value":"Moldawie"},{"key":"IT","value":"Moldavia"},{"key":"JP","value":"モルドバ共和国"},{"key":"RU","value":"Молдавия"},{"key":"ES","value":"Moldavia"}]},{"area":587041,"callingCode":"261","code":"MG","name":"Madagascar","region":"Africa","translatedName":[{"key":"FR","value":"Madagascar"},{"key":"GE","value":"Madagaskar"},{"key":"IT","value":"Madagascar"},{"key":"JP","value":"マダガスカル"},{"key":"RU","value":"Мадагаскар"},{"key":"ES","value":"Madagascar"}]},{"area":300,"callingCode":"960","code":"MV","name":"Maldives","region":"Asia","translatedName":[{"key":"FR","value":"Maldives"},{"key":"GE","value":"Malediven"},{"key":"IT","value":"Maldive"},{"key":"JP","value":"モルディブ"},{"key":"RU","value":"Мальдивы"}]},{"area":1964375,"callingCode":"52","code":"MX","name":"Mexico","region":"Americas","translatedName":[{"key":"FR","value":"Mexique"},{"key":"GE","value":"Mexiko"},{"key":"IT","value":"Messico"},{"key":"JP","value":"メキシコ"},{"key":"RU","value":"Мексика"},{"key":"ES","value":"México"}]},{"area":181,"callingCode":"692","code":"MH","name":"Marshall Islands","region":"Oceania","translatedName":[{"key":"FR","value":"Îles Marshall"},{"key":"GE","value":"Marshallinseln"},{"key":"IT","value":"Isole Marshall"},{"key":"JP","value":"マーシャル諸島"},{"key":"RU","value":"Маршалловы Острова"},{"key":"ES","value":"Islas Marshall"}]},{"area":25713,"callingCode":"389","code":"MK","name":"Macedonia","region":"Europe","translatedName":[{"key":"FR","value":"Macédoine"},{"key":"GE","value":"Mazedonien"},{"key":"IT","value":"Macedonia"},{"key":"JP","value":"マケドニア旧ユーゴスラビア共和国"},{"key":"RU","value":"Республика Македония"},{"key":"ES","value":"Macedonia"}]},{"area":1240192,"callingCode":"223","code":"ML","name":"Mali","region":"Africa","translatedName":[{"key":"FR","value":"Mali"},{"key":"GE","value":"Mali"},{"key":"IT","value":"Mali"},{"key":"JP","value":"マリ"},{"key":"RU","value":"Мали"},{"key":"ES","value":"Mali"}]},{"area":316,"callingCode":"356","code":"MT","name":"Malta","region":"Europe","translatedName":[{"key":"FR","value":"Malte"},{"key":"GE","value":"Malta"},{"key":"IT","value":"Malta"},{"key":"JP","value":"マルタ"},{"key":"RU","value":"Мальта"},{"key":"ES","value":"Malta"}]},{"area":676578,"callingCode":"95","code":"MM","name":"Myanmar","region":"Asia","translatedName":[{"key":"FR","value":"Birmanie"},{"key":"GE","value":"Myanmar"},{"key":"IT","value":"Birmania"},{"key":"JP","value":"ミャンマー"},{"key":"RU","value":"Мьянма"},{"key":"ES","value":"Myanmar"}]},{"area":13812,"callingCode":"382","code":"ME","name":"Montenegro","region":"Europe","translatedName":[{"key":"FR","value":"Monténégro"},{"key":"GE","value":"Montenegro"},{"key":"IT","value":"Montenegro"},{"key":"JP","value":"モンテネグロ"},{"key":"RU","value":"Черногория"},{"key":"ES","value":"Montenegro"}]},{"area":1564110,"callingCode":"976","code":"MN","name":"Mongolia","region":"Asia","translatedName":[{"key":"FR","value":"Mongolie"},{"key":"GE","value":"Mongolei"},{"key":"IT","value":"Mongolia"},{"key":"JP","value":"モンゴル"},{"key":"RU","value":"Монголия"},{"key":"ES","value":"Mongolia"}]},{"area":464,"callingCode":"1670","code":"MP","name":"Northern Mariana Islands","region":"Oceania","translatedName":[{"key":"FR","value":"Îles Mariannes du Nord"},{"key":"GE","value":"Nördliche Marianen"},{"key":"IT","value":"Isole Marianne Settentrionali"},{"key":"JP","value":"北マリアナ諸島"},{"key":"RU","value":"Северные Марианские острова"},{"key":"ES","value":"Islas Marianas del Norte"}]},{"area":801590,"callingCode":"258","code":"MZ","name":"Mozambique","region":"Africa","translatedName":[{"key":"FR","value":"Mozambique"},{"key":"GE","value":"Mosambik"},{"key":"IT","value":"Mozambico"},{"key":"JP","value":"モザンビーク"},{"key":"RU","value":"Мозамбик"},{"key":"ES","value":"Mozambique"}]},{"area":1030700,"callingCode":"222","code":"MR","name":"Mauritania","region":"Africa","translatedName":[{"key":"FR","value":"Mauritanie"},{"key":"GE","value":"Mauretanien"},{"key":"IT","value":"Mauritania"},{"key":"JP","value":"モーリタニア"},{"key":"RU","value":"Мавритания"},{"key":"ES","value":"Mauritania"}]},{"area":102,"callingCode":"1664","code":"MS","name":"Montserrat","region":"Americas","translatedName":[{"key":"FR","value":"Montserrat"},{"key":"GE","value":"Montserrat"},{"key":"IT","value":"Montserrat"},{"key":"JP","value":"モントセラト"},{"key":"RU","value":"Монтсеррат"},{"key":"ES","value":"Montserrat"}]},{"area":1128,"callingCode":"596","code":"MQ","name":"Martinique","region":"Americas","translatedName":[{"key":"FR","value":"Martinique"},{"key":"GE","value":"Martinique"},{"key":"IT","value":"Martinica"},{"key":"JP","value":"マルティニーク"},{"key":"RU","value":"Мартиника"},{"key":"ES","value":"Martinica"}]},{"area":2040,"callingCode":"230","code":"MU","name":"Mauritius","region":"Africa","translatedName":[{"key":"FR","value":"Île Maurice"},{"key":"GE","value":"Mauritius"},{"key":"IT","value":"Mauritius"},{"key":"JP","value":"モーリシャス"},{"key":"RU","value":"Маврикий"},{"key":"ES","value":"Mauricio"}]},{"area":118484,"callingCode":"265","code":"MW","name":"Malawi","region":"Africa","translatedName":[{"key":"FR","value":"Malawi"},{"key":"GE","value":"Malawi"},{"key":"IT","value":"Malawi"},{"key":"JP","value":"マラウイ"},{"key":"RU","value":"Малави"},{"key":"ES","value":"Malawi"}]},{"area":330803,"callingCode":"60","code":"MY","name":"Malaysia","region":"Asia","translatedName":[{"key":"FR","value":"Malaisie"},{"key":"GE","value":"Malaysia"},{"key":"IT","value":"Malesia"},{"key":"JP","value":"マレーシア"},{"key":"RU","value":"Малайзия"},{"key":"ES","value":"Malasia"}]},{"area":374,"callingCode":"262","code":"YT","name":"Mayotte","region":"Africa","translatedName":[{"key":"FR","value":"Mayotte"},{"key":"GE","value":"Mayotte"},{"key":"IT","value":"Mayotte"},{"key":"JP","value":"マヨット"},{"key":"RU","value":"Майотта"},{"key":"ES","value":"Mayotte"}]},{"area":825615,"callingCode":"264","code":"NA","name":"Namibia","region":"Africa","translatedName":[{"key":"FR","value":"Namibie"},{"key":"GE","value":"Namibia"},{"key":"IT","value":"Namibia"},{"key":"JP","value":"ナミビア"},{"key":"RU","value":"Намибия"},{"key":"ES","value":"Namibia"}]},{"area":18575,"callingCode":"687","code":"NC","name":"New Caledonia","region":"Oceania","translatedName":[{"key":"FR","value":"Nouvelle-Calédonie"},{"key":"GE","value":"Neukaledonien"},{"key":"IT","value":"Nuova Caledonia"},{"key":"JP","value":"ニューカレドニア"},{"key":"RU","value":"Новая Каледония"},{"key":"ES","value":"Nueva Caledonia"}]},{"area":1267000,"callingCode":"227","code":"NE","name":"Niger","region":"Africa","translatedName":[{"key":"FR","value":"Niger"},{"key":"GE","value":"Niger"},{"key":"IT","value":"Niger"},{"key":"JP","value":"ニジェール"},{"key":"RU","value":"Нигер"},{"key":"ES","value":"Níger"}]},{"area":36,"callingCode":"672","code":"NF","name":"Norfolk Island","region":"Oceania","translatedName":[{"key":"FR","value":"Île Norfolk"},{"key":"GE","value":"Norfolkinsel"},{"key":"IT","value":"Isola Norfolk"},{"key":"JP","value":"ノーフォーク島"},{"key":"RU","value":"Норфолк"},{"key":"ES","value":"Isla de Norfolk"}]},{"area":923768,"callingCode":"234","code":"NG","name":"Nigeria","region":"Africa","translatedName":[{"key":"FR","value":"Nigéria"},{"key":"GE","value":"Nigeria"},{"key":"IT","value":"Nigeria"},{"key":"JP","value":"ナイジェリア"},{"key":"RU","value":"Нигерия"},{"key":"ES","value":"Nigeria"}]},{"area":130373,"callingCode":"505","code":"NI","name":"Nicaragua","region":"Americas","translatedName":[{"key":"FR","value":"Nicaragua"},{"key":"GE","value":"Nicaragua"},{"key":"IT","value":"Nicaragua"},{"key":"JP","value":"ニカラグア"},{"key":"RU","value":"Никарагуа"},{"key":"ES","value":"Nicaragua"}]},{"area":260,"callingCode":"683","code":"NU","name":"Niue","region":"Oceania","translatedName":[{"key":"FR","value":"Niue"},{"key":"GE","value":"Niue"},{"key":"IT","value":"Niue"},{"key":"JP","value":"ニウエ"},{"key":"RU","value":"Ниуэ"},{"key":"ES","value":"Niue"}]},{"area":41850,"callingCode":"31","code":"NL","name":"Netherlands","region":"Europe","translatedName":[{"key":"FR","value":"Pays-Bas"},{"key":"GE","value":"Niederlande"},{"key":"IT","value":"Paesi Bassi"},{"key":"JP","value":"オランダ"},{"key":"RU","value":"Нидерланды"},{"key":"ES","value":"Países Bajos"}]},{"area":323802,"callingCode":"47","code":"NO","name":"Norway","region":"Europe","translatedName":[{"key":"FR","value":"Norvège"},{"key":"GE","value":"Norwegen"},{"key":"IT","value":"Norvegia"},{"key":"JP","value":"ノルウェー"},{"key":"RU","value":"Норвегия"},{"key":"ES","value":"Noruega"}]},{"area":147181,"callingCode":"977","code":"NP","name":"Nepal","region":"Asia","translatedName":[{"key":"FR","value":"Népal"},{"key":"GE","value":"Népal"},{"key":"IT","value":"Nepal"},{"key":"JP","value":"ネパール"},{"key":"RU","value":"Непал"},{"key":"ES","value":"Nepal"}]},{"area":21,"callingCode":"674","code":"NR","name":"Nauru","region":"Oceania","translatedName":[{"key":"FR","value":"Nauru"},{"key":"GE","value":"Nauru"},{"key":"IT","value":"Nauru"},{"key":"JP","value":"ナウル"},{"key":"RU","value":"Науру"},{"key":"ES","value":"Nauru"}]},{"area":270467,"callingCode":"64","code":"NZ","name":"New Zealand","region":"Oceania","translatedName":[{"key":"FR","value":"Nouvelle-Zélande"},{"key":"GE","value":"Neuseeland"},{"key":"IT","value":"Nuova Zelanda"},{"key":"JP","value":"ニュージーランド"},{"key":"RU","value":"Новая Зеландия"},{"key":"ES","value":"Nueva Zelanda"}]},{"area":309500,"callingCode":"968","code":"OM","name":"Oman","region":"Asia","translatedName":[{"key":"FR","value":"Oman"},{"key":"GE","value":"Oman"},{"key":"IT","value":"oman"},{"key":"JP","value":"オマーン"},{"key":"RU","value":"Оман"},{"key":"ES","value":"Omán"}]},{"area":881912,"callingCode":"92","code":"PK","name":"Pakistan","region":"Asia","translatedName":[{"key":"FR","value":"Pakistan"},{"key":"GE","value":"Pakistan"},{"key":"IT","value":"Pakistan"},{"key":"JP","value":"パキスタン"},{"key":"RU","value":"Пакистан"},{"key":"ES","value":"Pakistán"}]},{"area":75417,"callingCode":"507","code":"PA","name":"Panama","region":"Americas","translatedName":[{"key":"FR","value":"Panama"},{"key":"GE","value":"Panama"},{"key":"IT","value":"Panama"},{"key":"JP","value":"パナマ"},{"key":"RU","value":"Панама"},{"key":"ES","value":"Panamá"}]},{"area":47,"callingCode":"64","code":"PN","name":"Pitcairn Islands","region":"Oceania","translatedName":[{"key":"FR","value":"Îles Pitcairn"},{"key":"GE","value":"Pitcairn"},{"key":"IT","value":"Isole Pitcairn"},{"key":"JP","value":"ピトケアン"},{"key":"RU","value":"Острова Питкэрн"},{"key":"ES","value":"Islas Pitcairn"}]},{"area":1285216,"callingCode":"51","code":"PE","name":"Peru","region":"Americas","translatedName":[{"key":"FR","value":"Pérou"},{"key":"GE","value":"Peru"},{"key":"IT","value":"Perù"},{"key":"JP","value":"ペルー"},{"key":"RU","value":"Перу"},{"key":"ES","value":"Perú"}]},{"area":342353,"callingCode":"63","code":"PH","name":"Philippines","region":"Asia","translatedName":[{"key":"FR","value":"Philippines"},{"key":"GE","value":"Philippinen"},{"key":"IT","value":"Filippine"},{"key":"JP","value":"フィリピン"},{"key":"RU","value":"Филиппины"},{"key":"ES","value":"Filipinas"}]},{"area":459,"callingCode":"680","code":"PW","name":"Palau","region":"Oceania","translatedName":[{"key":"FR","value":"Palaos (Palau)"},{"key":"GE","value":"Palau"},{"key":"IT","value":"Palau"},{"key":"JP","value":"パラオ"},{"key":"RU","value":"Палау"},{"key":"ES","value":"Palau"}]},{"area":462840,"callingCode":"675","code":"PG","name":"Papua New Guinea","region":"Oceania","translatedName":[{"key":"FR","value":"Papouasie-Nouvelle-Guinée"},{"key":"GE","value":"Papua-Neuguinea"},{"key":"IT","value":"Papua Nuova Guinea"},{"key":"JP","value":"パプアニューギニア"},{"key":"RU","value":"Папуа — Новая Гвинея"},{"key":"ES","value":"Papúa Nueva Guinea"}]},{"area":312679,"callingCode":"48","code":"PL","name":"Poland","region":"Europe","translatedName":[{"key":"FR","value":"Pologne"},{"key":"GE","value":"Polen"},{"key":"IT","value":"Polonia"},{"key":"JP","value":"ポーランド"},{"key":"RU","value":"Польша"},{"key":"ES","value":"Polonia"}]},{"area":120538,"callingCode":"850","code":"KP","name":"North Korea","region":"Asia","translatedName":[{"key":"FR","value":"Corée du Nord"},{"key":"GE","value":"Nordkorea"},{"key":"IT","value":"Corea del Nord"},{"key":"JP","value":"朝鮮民主主義人民共和国"},{"key":"RU","value":"Северная Корея"},{"key":"ES","value":"Corea del Norte"}]},{"area":92090,"callingCode":"351","code":"PT","name":"Portugal","region":"Europe","translatedName":[{"key":"FR","value":"Portugal"},{"key":"GE","value":"Portugal"},{"key":"IT","value":"Portogallo"},{"key":"JP","value":"ポルトガル"},{"key":"RU","value":"Португалия"},{"key":"ES","value":"Portugal"}]},{"area":406752,"callingCode":"595","code":"PY","name":"Paraguay","region":"Americas","translatedName":[{"key":"FR","value":"Paraguay"},{"key":"GE","value":"Paraguay"},{"key":"IT","value":"Paraguay"},{"key":"JP","value":"パラグアイ"},{"key":"RU","value":"Парагвай"},{"key":"ES","value":"Paraguay"}]},{"area":6220,"callingCode":"970","code":"PS","name":"Palestine","region":"Asia","translatedName":[{"key":"FR","value":"Palestine"},{"key":"GE","value":"Palästina"},{"key":"IT","value":"Palestina"},{"key":"JP","value":"パレスチナ"},{"key":"RU","value":"Палестина"},{"key":"ES","value":"Palestina"}]},{"area":4167,"callingCode":"689","code":"PF","name":"French Polynesia","region":"Oceania","translatedName":[{"key":"FR","value":"Polynésie française"},{"key":"GE","value":"Französisch-Polynesien"},{"key":"IT","value":"Polinesia Francese"},{"key":"JP","value":"フランス領ポリネシア"},{"key":"RU","value":"Французская Полинезия"},{"key":"ES","value":"Polinesia Francesa"}]},{"area":11586,"callingCode":"974","code":"QA","name":"Qatar","region":"Asia","translatedName":[{"key":"FR","value":"Qatar"},{"key":"GE","value":"Katar"},{"key":"IT","value":"Qatar"},{"key":"JP","value":"カタール"},{"key":"RU","value":"Катар"},{"key":"ES","value":"Catar"}]},{"area":2511,"callingCode":"262","code":"RE","name":"Réunion","region":"Africa","translatedName":[{"key":"FR","value":"Réunion"},{"key":"GE","value":"Réunion"},{"key":"IT","value":"Riunione"},{"key":"JP","value":"レユニオン"},{"key":"RU","value":"Реюньон"},{"key":"ES","value":"Reunión"}]},{"area":238391,"callingCode":"40","code":"RO","name":"Romania","region":"Europe","translatedName":[{"key":"FR","value":"Roumanie"},{"key":"GE","value":"Rumänien"},{"key":"IT","value":"Romania"},{"key":"JP","value":"ルーマニア"},{"key":"RU","value":"Румыния"},{"key":"ES","value":"Rumania"}]},{"area":17098242,"callingCode":"7","code":"RU","name":"Russia","region":"Europe","translatedName":[{"key":"FR","value":"Russie"},{"key":"GE","value":"Russland"},{"key":"IT","value":"Russia"},{"key":"JP","value":"ロシア連邦"},{"key":"RU","value":"Россия"},{"key":"ES","value":"Rusia"}]},{"area":26338,"callingCode":"250","code":"RW","name":"Rwanda","region":"Africa","translatedName":[{"key":"FR","value":"Rwanda"},{"key":"GE","value":"Ruanda"},{"key":"IT","value":"Ruanda"},{"key":"JP","value":"ルワンダ"},{"key":"RU","value":"Руанда"},{"key":"ES","value":"Ruanda"}]},{"area":2149690,"callingCode":"966","code":"SA","name":"Saudi Arabia","region":"Asia","translatedName":[{"key":"FR","value":"Arabie Saoudite"},{"key":"GE","value":"Saudi-Arabien"},{"key":"IT","value":"Arabia Saudita"},{"key":"JP","value":"サウジアラビア"},{"key":"RU","value":"Саудовская Аравия"},{"key":"ES","value":"Arabia Saudí"}]},{"area":1886068,"callingCode":"249","code":"SD","name":"Sudan","region":"Africa","translatedName":[{"key":"FR","value":"Soudan"},{"key":"GE","value":"Sudan"},{"key":"IT","value":"Sudan"},{"key":"JP","value":"スーダン"},{"key":"RU","value":"Судан"},{"key":"ES","value":"Sudán"}]},{"area":196722,"callingCode":"221","code":"SN","name":"Senegal","region":"Africa","translatedName":[{"key":"FR","value":"Sénégal"},{"key":"GE","value":"Senegal"},{"key":"IT","value":"Senegal"},{"key":"JP","value":"セネガル"},{"key":"RU","value":"Сенегал"},{"key":"ES","value":"Senegal"}]},{"area":710,"callingCode":"65","code":"SG","name":"Singapore","region":"Asia","translatedName":[{"key":"FR","value":"Singapour"},{"key":"GE","value":"Singapur"},{"key":"IT","value":"Singapore"},{"key":"JP","value":"シンガポール"},{"key":"RU","value":"Сингапур"},{"key":"ES","value":"Singapur"}]},{"area":3903,"callingCode":"500","code":"GS","name":"South Georgia","region":"Americas","translatedName":[{"key":"FR","value":"Géorgie du Sud-et-les Îles Sandwich du Sud"},{"key":"GE","value":"Südgeorgien und die Südlichen Sandwichinseln"},{"key":"IT","value":"Georgia del Sud e Isole Sandwich Meridionali"},{"key":"JP","value":"サウスジョージア・サウスサンドウィッチ諸島"},{"key":"RU","value":"Южная Георгия и Южные Сандвичевы острова"},{"key":"ES","value":"Islas Georgias del Sur y Sandwich del Sur"}]},{"area":-1,"callingCode":"4779","code":"SJ","name":"Svalbard and Jan Mayen","region":"Europe","translatedName":[{"key":"FR","value":"Svalbard et Jan Mayen"},{"key":"GE","value":"Spitzbergen"},{"key":"IT","value":"Svalbard e Jan Mayen"},{"key":"JP","value":"スヴァールバル諸島およびヤンマイエン島"},{"key":"RU","value":"Шпицберген и Ян-Майен"},{"key":"ES","value":"Islas Svalbard y Jan Mayen"}]},{"area":28896,"callingCode":"677","code":"SB","name":"Solomon Islands","region":"Oceania","translatedName":[{"key":"FR","value":"Îles Salomon"},{"key":"GE","value":"Salomonen"},{"key":"IT","value":"Isole Salomone"},{"key":"JP","value":"ソロモン諸島"},{"key":"RU","value":"Соломоновы Острова"},{"key":"ES","value":"Islas Salomón"}]},{"area":71740,"callingCode":"232","code":"SL","name":"Sierra Leone","region":"Africa","translatedName":[{"key":"FR","value":"Sierra Leone"},{"key":"GE","value":"Sierra Leone"},{"key":"IT","value":"Sierra Leone"},{"key":"JP","value":"シエラレオネ"},{"key":"RU","value":"Сьерра-Леоне"},{"key":"ES","value":"Sierra Leone"}]},{"area":21041,"callingCode":"503","code":"SV","name":"El Salvador","region":"Americas","translatedName":[{"key":"FR","value":"Salvador"},{"key":"GE","value":"El Salvador"},{"key":"IT","value":"El Salvador"},{"key":"JP","value":"エルサルバドル"},{"key":"RU","value":"Сальвадор"},{"key":"ES","value":"El Salvador"}]},{"area":61,"callingCode":"378","code":"SM","name":"San Marino","region":"Europe","translatedName":[{"key":"FR","value":"Saint-Marin"},{"key":"GE","value":"San Marino"},{"key":"IT","value":"San Marino"},{"key":"JP","value":"サンマリノ"},{"key":"RU","value":"Сан-Марино"},{"key":"ES","value":"San Marino"}]},{"area":637657,"callingCode":"252","code":"SO","name":"Somalia","region":"Africa","translatedName":[{"key":"FR","value":"Somalie"},{"key":"GE","value":"Somalia"},{"key":"IT","value":"Somalia"},{"key":"JP","value":"ソマリア"},{"key":"RU","value":"Сомали"},{"key":"ES","value":"Somalia"}]},{"area":242,"callingCode":"508","code":"PM","name":"Saint Pierre and Miquelon","region":"Americas","translatedName":[{"key":"FR","value":"Saint-Pierre-et-Miquelon"},{"key":"GE","value":"Saint-Pierre und Miquelon"},{"key":"IT","value":"Saint-Pierre e Miquelon"},{"key":"JP","value":"サンピエール島・ミクロン島"},{"key":"RU","value":"Сен-Пьер и Микелон"},{"key":"ES","value":"San Pedro y Miquelón"}]},{"area":88361,"callingCode":"381","code":"RS","name":"Serbia","region":"Europe","translatedName":[{"key":"FR","value":"Serbie"},{"key":"GE","value":"Serbien"},{"key":"IT","value":"Serbia"},{"key":"JP","value":"セルビア"},{"key":"RU","value":"Сербия"},{"key":"ES","value":"Serbia"}]},{"area":619745,"callingCode":"211","code":"SS","name":"South Sudan","region":"Africa","translatedName":[{"key":"FR","value":"Soudan du Sud"},{"key":"GE","value":"Südsudan"},{"key":"IT","value":"Sudan del sud"},{"key":"JP","value":"南スーダン"},{"key":"RU","value":"Южный Судан"},{"key":"ES","value":"Sudán del Sur"}]},{"area":964,"callingCode":"239","code":"ST","name":"São Tomé and Príncipe","region":"Africa","translatedName":[{"key":"FR","value":"São Tomé et Príncipe"},{"key":"GE","value":"São Tomé und Príncipe"},{"key":"IT","value":"São Tomé e Príncipe"},{"key":"JP","value":"サントメ・プリンシペ"},{"key":"RU","value":"Сан-Томе и Принсипи"}]},{"area":163820,"callingCode":"597","code":"SR","name":"Suriname","region":"Americas","translatedName":[{"key":"FR","value":"Surinam"},{"key":"GE","value":"Suriname"},{"key":"IT","value":"Suriname"},{"key":"JP","value":"スリナム"},{"key":"RU","value":"Суринам"},{"key":"ES","value":"Surinam"}]},{"area":49037,"callingCode":"421","code":"SK","name":"Slovakia","region":"Europe","translatedName":[{"key":"FR","value":"Slovaquie"},{"key":"GE","value":"Slowakei"},{"key":"IT","value":"Slovacchia"},{"key":"JP","value":"スロバキア"},{"key":"RU","value":"Словакия"},{"key":"ES","value":"República Eslovaca"}]},{"area":20273,"callingCode":"386","code":"SI","name":"Slovenia","region":"Europe","translatedName":[{"key":"FR","value":"Slovénie"},{"key":"GE","value":"Slowenien"},{"key":"IT","value":"Slovenia"},{"key":"JP","value":"スロベニア"},{"key":"RU","value":"Словения"},{"key":"ES","value":"Eslovenia"}]},{"area":450295,"callingCode":"46","code":"SE","name":"Sweden","region":"Europe","translatedName":[{"key":"FR","value":"Suède"},{"key":"GE","value":"Schweden"},{"key":"IT","value":"Svezia"},{"key":"JP","value":"スウェーデン"},{"key":"RU","value":"Швеция"},{"key":"ES","value":"Suecia"}]},{"area":17364,"callingCode":"268","code":"SZ","name":"Swaziland","region":"Africa","translatedName":[{"key":"FR","value":"Swaziland"},{"key":"GE","value":"Swasiland"},{"key":"IT","value":"Swaziland"},{"key":"JP","value":"スワジランド"},{"key":"RU","value":"Свазиленд"},{"key":"ES","value":"Suazilandia"}]},{"area":34,"callingCode":"1721","code":"SX","name":"Sint Maarten","region":"Americas","translatedName":[{"key":"FR","value":"Saint-Martin"},{"key":"GE","value":"Sint Maarten"},{"key":"IT","value":"Sint Maarten"},{"key":"JP","value":"シント・マールテン"},{"key":"RU","value":"Синт-Мартен"},{"key":"ES","value":"Sint Maarten"}]},{"area":452,"callingCode":"248","code":"SC","name":"Seychelles","region":"Africa","translatedName":[{"key":"FR","value":"Seychelles"},{"key":"GE","value":"Seychellen"},{"key":"IT","value":"Seychelles"},{"key":"JP","value":"セーシェル"},{"key":"RU","value":"Сейшельские Острова"},{"key":"ES","value":"Seychelles"}]},{"area":185180,"callingCode":"963","code":"SY","name":"Syria","region":"Asia","translatedName":[{"key":"FR","value":"Syrie"},{"key":"GE","value":"Syrien"},{"key":"IT","value":"Siria"},{"key":"JP","value":"シリア・アラブ共和国"},{"key":"RU","value":"Сирия"},{"key":"ES","value":"Siria"}]},{"area":948,"callingCode":"1649","code":"TC","name":"Turks and Caicos Islands","region":"Americas","translatedName":[{"key":"FR","value":"Îles Turques-et-Caïques"},{"key":"GE","value":"Turks-und Caicosinseln"},{"key":"IT","value":"Isole Turks e Caicos"},{"key":"JP","value":"タークス・カイコス諸島"},{"key":"RU","value":"Теркс и Кайкос"},{"key":"ES","value":"Islas Turks y Caicos"}]},{"area":1284000,"callingCode":"235","code":"TD","name":"Chad","region":"Africa","translatedName":[{"key":"FR","value":"Tchad"},{"key":"GE","value":"Tschad"},{"key":"IT","value":"Ciad"},{"key":"JP","value":"チャド"},{"key":"RU","value":"Чад"},{"key":"ES","value":"Chad"}]},{"area":56785,"callingCode":"228","code":"TG","name":"Togo","region":"Africa","translatedName":[{"key":"FR","value":"Togo"},{"key":"GE","value":"Togo"},{"key":"IT","value":"Togo"},{"key":"JP","value":"トーゴ"},{"key":"RU","value":"Того"},{"key":"ES","value":"Togo"}]},{"area":513120,"callingCode":"66","code":"TH","name":"Thailand","region":"Asia","translatedName":[{"key":"FR","value":"Thaïlande"},{"key":"GE","value":"Thailand"},{"key":"IT","value":"Tailandia"},{"key":"JP","value":"タイ"},{"key":"RU","value":"Таиланд"},{"key":"ES","value":"Tailandia"}]},{"area":143100,"callingCode":"992","code":"TJ","name":"Tajikistan","region":"Asia","translatedName":[{"key":"FR","value":"Tadjikistan"},{"key":"GE","value":"Tadschikistan"},{"key":"IT","value":"Tagikistan"},{"key":"JP","value":"タジキスタン"},{"key":"RU","value":"Таджикистан"},{"key":"ES","value":"Tayikistán"}]},{"area":12,"callingCode":"690","code":"TK","name":"Tokelau","region":"Oceania","translatedName":[{"key":"FR","value":"Tokelau"},{"key":"GE","value":"Tokelau"},{"key":"IT","value":"Isole Tokelau"},{"key":"JP","value":"トケラウ"},{"key":"RU","value":"Токелау"},{"key":"ES","value":"Islas Tokelau"}]},{"area":488100,"callingCode":"993","code":"TM","name":"Turkmenistan","region":"Asia","translatedName":[{"key":"FR","value":"Turkménistan"},{"key":"GE","value":"Turkmenistan"},{"key":"IT","value":"Turkmenistan"},{"key":"JP","value":"トルクメニスタン"},{"key":"RU","value":"Туркмения"},{"key":"ES","value":"Turkmenistán"}]},{"area":14874,"callingCode":"670","code":"TL","name":"Timor-Leste","region":"Asia","translatedName":[{"key":"FR","value":"Timor oriental"},{"key":"GE","value":"Timor-Leste"},{"key":"IT","value":"Timor Est"},{"key":"JP","value":"東ティモール"},{"key":"RU","value":"Восточный Тимор"},{"key":"ES","value":"Timor Oriental"}]},{"area":747,"callingCode":"676","code":"TO","name":"Tonga","region":"Oceania","translatedName":[{"key":"FR","value":"Tonga"},{"key":"GE","value":"Tonga"},{"key":"IT","value":"Tonga"},{"key":"JP","value":"トンガ"},{"key":"RU","value":"Тонга"},{"key":"ES","value":"Tonga"}]},{"area":5130,"callingCode":"1868","code":"TT","name":"Trinidad and Tobago","region":"Americas","translatedName":[{"key":"FR","value":"Trinité-et-Tobago"},{"key":"GE","value":"Trinidad und Tobago"},{"key":"IT","value":"Trinidad e Tobago"},{"key":"JP","value":"トリニダード・トバゴ"},{"key":"RU","value":"Тринидад и Тобаго"},{"key":"ES","value":"Trinidad y Tobago"}]},{"area":163610,"callingCode":"216","code":"TN","name":"Tunisia","region":"Africa","translatedName":[{"key":"FR","value":"Tunisie"},{"key":"GE","value":"Tunesien"},{"key":"IT","value":"Tunisia"},{"key":"JP","value":"チュニジア"},{"key":"RU","value":"Тунис"},{"key":"ES","value":"Túnez"}]},{"area":783562,"callingCode":"90","code":"TR","name":"Turkey","region":"Asia","translatedName":[{"key":"FR","value":"Turquie"},{"key":"GE","value":"Türkei"},{"key":"IT","value":"Turchia"},{"key":"JP","value":"トルコ"},{"key":"RU","value":"Турция"},{"key":"ES","value":"Turquía"}]},{"area":26,"callingCode":"688","code":"TV","name":"Tuvalu","region":"Oceania","translatedName":[{"key":"FR","value":"Tuvalu"},{"key":"GE","value":"Tuvalu"},{"key":"IT","value":"Tuvalu"},{"key":"JP","value":"ツバル"},{"key":"RU","value":"Тувалу"},{"key":"ES","value":"Tuvalu"}]},{"area":36193,"callingCode":"886","code":"TW","name":"Taiwan","region":"Asia","translatedName":[{"key":"FR","value":"Taïwan"},{"key":"GE","value":"Taiwan"},{"key":"IT","value":"Taiwan"},{"key":"JP","value":"台湾（台湾省/中華民国）"},{"key":"RU","value":"Тайвань"},{"key":"ES","value":"Taiwán"}]},{"area":945087,"callingCode":"255","code":"TZ","name":"Tanzania","region":"Africa","translatedName":[{"key":"FR","value":"Tanzanie"},{"key":"GE","value":"Tansania"},{"key":"IT","value":"Tanzania"},{"key":"JP","value":"タンザニア"},{"key":"RU","value":"Танзания"},{"key":"ES","value":"Tanzania"}]},{"area":241550,"callingCode":"256","code":"UG","name":"Uganda","region":"Africa","translatedName":[{"key":"FR","value":"Ouganda"},{"key":"GE","value":"Uganda"},{"key":"IT","value":"Uganda"},{"key":"JP","value":"ウガンダ"},{"key":"RU","value":"Уганда"},{"key":"ES","value":"Uganda"}]},{"area":603500,"callingCode":"380","code":"UA","name":"Ukraine","region":"Europe","translatedName":[{"key":"FR","value":"Ukraine"},{"key":"GE","value":"Ukraine"},{"key":"IT","value":"Ucraina"},{"key":"JP","value":"ウクライナ"},{"key":"RU","value":"Украина"},{"key":"ES","value":"Ucrania"}]},{"area":181034,"callingCode":"598","code":"UY","name":"Uruguay","region":"Americas","translatedName":[{"key":"FR","value":"Uruguay"},{"key":"GE","value":"Uruguay"},{"key":"IT","value":"Uruguay"},{"key":"JP","value":"ウルグアイ"},{"key":"RU","value":"Уругвай"},{"key":"ES","value":"Uruguay"}]},{"area":9372610,"callingCode":"1","code":"US","name":"United States","region":"Americas","translatedName":[{"key":"FR","value":"États-Unis"},{"key":"GE","value":"Vereinigte Staaten von Amerika"},{"key":"IT","value":"Stati Uniti d'America"},{"key":"JP","value":"アメリカ合衆国"},{"key":"RU","value":"Соединённые Штаты Америки"},{"key":"ES","value":"Estados Unidos"}]},{"area":447400,"callingCode":"998","code":"UZ","name":"Uzbekistan","region":"Asia","translatedName":[{"key":"FR","value":"Ouzbékistan"},{"key":"GE","value":"Usbekistan"},{"key":"IT","value":"Uzbekistan"},{"key":"JP","value":"ウズベキスタン"},{"key":"RU","value":"Узбекистан"},{"key":"ES","value":"Uzbekistán"}]},{"area":389,"callingCode":"1784","code":"VC","name":"Saint Vincent and the Grenadines","region":"Americas","translatedName":[{"key":"FR","value":"Saint-Vincent-et-les-Grenadines"},{"key":"GE","value":"Saint Vincent und die Grenadinen"},{"key":"IT","value":"Saint Vincent e Grenadine"},{"key":"JP","value":"セントビンセントおよびグレナディーン諸島"},{"key":"RU","value":"Сент-Винсент и Гренадины"},{"key":"ES","value":"San Vicente y Granadinas"}]},{"area":916445,"callingCode":"58","code":"VE","name":"Venezuela","region":"Americas","translatedName":[{"key":"FR","value":"Venezuela"},{"key":"GE","value":"Venezuela"},{"key":"IT","value":"Venezuela"},{"key":"JP","value":"ベネズエラ・ボリバル共和国"},{"key":"RU","value":"Венесуэла"},{"key":"ES","value":"Venezuela"}]},{"area":151,"callingCode":"1284","code":"VG","name":"British Virgin Islands","region":"Americas","translatedName":[{"key":"FR","value":"Îles Vierges britanniques"},{"key":"GE","value":"Britische Jungferninseln"},{"key":"IT","value":"Isole Vergini Britanniche"},{"key":"JP","value":"イギリス領ヴァージン諸島"},{"key":"RU","value":"Британские Виргинские острова"},{"key":"ES","value":"Islas Vírgenes del Reino Unido"}]},{"area":347,"callingCode":"1340","code":"VI","name":"United States Virgin Islands","region":"Americas","translatedName":[{"key":"FR","value":"Îles Vierges des États-Unis"},{"key":"GE","value":"Amerikanische Jungferninseln"},{"key":"IT","value":"Isole Vergini americane"},{"key":"JP","value":"アメリカ領ヴァージン諸島"},{"key":"RU","value":"Виргинские Острова"},{"key":"ES","value":"Islas Vírgenes de los Estados Unidos"}]},{"area":331212,"callingCode":"84","code":"VN","name":"Vietnam","region":"Asia","translatedName":[{"key":"FR","value":"Viêt Nam"},{"key":"GE","value":"Vietnam"},{"key":"IT","value":"Vietnam"},{"key":"JP","value":"ベトナム"},{"key":"RU","value":"Вьетнам"},{"key":"ES","value":"Vietnam"}]},{"area":12189,"callingCode":"678","code":"VU","name":"Vanuatu","region":"Oceania","translatedName":[{"key":"FR","value":"Vanuatu"},{"key":"GE","value":"Vanuatu"},{"key":"IT","value":"Vanuatu"},{"key":"JP","value":"バヌアツ"},{"key":"RU","value":"Вануату"},{"key":"ES","value":"Vanuatu"}]},{"area":142,"callingCode":"681","code":"WF","name":"Wallis and Futuna","region":"Oceania","translatedName":[{"key":"FR","value":"Wallis-et-Futuna"},{"key":"GE","value":"Wallis und Futuna"},{"key":"IT","value":"Wallis e Futuna"},{"key":"JP","value":"ウォリス・フツナ"},{"key":"RU","value":"Уоллис и Футуна"},{"key":"ES","value":"Wallis y Futuna"}]},{"area":2842,"callingCode":"685","code":"WS","name":"Samoa","region":"Oceania","translatedName":[{"key":"FR","value":"Samoa"},{"key":"GE","value":"Samoa"},{"key":"IT","value":"Samoa"},{"key":"JP","value":"サモア"},{"key":"RU","value":"Самоа"},{"key":"ES","value":"Samoa"}]},{"area":527968,"callingCode":"967","code":"YE","name":"Yemen","region":"Asia","translatedName":[{"key":"FR","value":"Yémen"},{"key":"GE","value":"Jemen"},{"key":"IT","value":"Yemen"},{"key":"JP","value":"イエメン"},{"key":"RU","value":"Йемен"},{"key":"ES","value":"Yemen"}]},{"area":1221037,"callingCode":"27","code":"ZA","name":"South Africa","region":"Africa","translatedName":[{"key":"FR","value":"Afrique du Sud"},{"key":"GE","value":"Republik Südafrika"},{"key":"IT","value":"Sud Africa"},{"key":"JP","value":"南アフリカ"},{"key":"RU","value":"Южно-Африканская Республика"},{"key":"ES","value":"República de Sudáfrica"}]},{"area":752612,"callingCode":"260","code":"ZM","name":"Zambia","region":"Africa","translatedName":[{"key":"FR","value":"Zambie"},{"key":"GE","value":"Sambia"},{"key":"IT","value":"Zambia"},{"key":"JP","value":"ザンビア"},{"key":"RU","value":"Замбия"},{"key":"ES","value":"Zambia"}]},{"area":390757,"callingCode":"263","code":"ZW","name":"Zimbabwe","region":"Africa","translatedName":[{"key":"FR","value":"Zimbabwe"},{"key":"GE","value":"Simbabwe"},{"key":"IT","value":"Zimbabwe"},{"key":"JP","value":"ジンバブエ"},{"key":"RU","value":"Зимбабве"},{"key":"ES","value":"Zimbabue"}]}]